0 SL-16 DEB
1 22348U 92093AM  13281.50294016  .00000603  00000-0  38226-3 0  5421
2 22348 071.2626 322.0345 0111820 330.4321 137.6162 14.04736122 61961
0 SL-16 DEB
1 22348U 92093AM  13283.78317252  .00000578  00000-0  36727-3 0  5437
2 22348 071.2623 317.3877 0111954 326.9612 148.8397 14.04740954 62284
0 SL-16 DEB
1 22348U 92093AM  13286.19383625  .00000330  00000-0  22109-3 0  5448
2 22348 071.2619 312.4752 0112054 323.3048 099.6744 14.04745867 62628
0 SL-16 DEB
1 22348U 92093AM  13288.49246269  .00000420  00000-0  27417-3 0  5453
2 22348 071.2617 307.7907 0112141 319.8283 203.9633 14.04749490 62941
0 SL-16 DEB
1 22348U 92093AM  13289.82371171  .00000352  00000-0  23410-3 0  5466
2 22348 071.2617 305.0775 0112196 317.8192 096.1808 14.04750641 63130
0 SL-16 DEB
1 22348U 92093AM  13291.17958012  .00000437  00000-0  28447-3 0  5472
2 22348 071.2617 302.3141 0112257 315.7709 112.9118 14.04750814 63320
0 SL-16 DEB
1 22348U 92093AM  13292.47169503  .00000656  00000-0  41358-3 0  5485
2 22348 071.2618 299.6807 0112297 313.8158 167.2452 14.04751018 63500
0 SL-16 DEB
1 22348U 92093AM  13294.18109725  .00000855  00000-0  53073-3 0  5494
2 22348 071.2620 296.1971 0112367 311.2238 171.8427 14.04752515 63748
0 SL-16 DEB
1 22348U 92093AM  13295.47139529  .00000970  00000-0  59814-3 0  5501
2 22348 071.2620 293.5676 0112437 309.2892 216.9751 14.04754468 63922
